{"type":"FeatureCollection","name":"User-provided RCM and Sentinel-1 scene footprints","features":[{"type":"Feature","id":"fiona-before","geometry":{"type":"Polygon","coordinates":[[[-64.360145281766,45.412551691065],[-59.796599412844,45.998362066158],[-60.593951948213,49.382440943014],[-65.456599124219,48.787704062626],[-64.360145281766,45.412551691065]]]},"properties":{"event_id":"fiona","event_name":"Hurricane Fiona","role":"before","date":"2022-09-20","sensor":"RCM-3","polarization":"VV/VH","product_id":"RCM3_OK2000431_PK2265822_1_SC50MA_20220920_215531_VV_VH_GRD"}},{"type":"Feature","id":"fiona-after","geometry":{"type":"Polygon","coordinates":[[[-64.480510528564,45.829136496433],[-59.886639945818,46.414989754311],[-60.689507305032,49.799144310445],[-65.588943710271,49.203890524272],[-64.480510528564,45.829136496433]]]},"properties":{"event_id":"fiona","event_name":"Hurricane Fiona","role":"after","date":"2022-09-24","sensor":"RCM-1","polarization":"VV/VH","product_id":"RCM1_OK2000496_PK2271094_2_SC50MA_20220924_215505_VV_VH_GRD"}},{"type":"Feature","id":"lee-before","geometry":{"type":"Polygon","coordinates":[[[-66.528137,46.54562],[-63.189743,46.945229],[-62.855339,45.447029],[-66.104919,45.047581],[-66.528137,46.54562]]]},"properties":{"event_id":"lee","event_name":"Hurricane Lee","role":"before","date":"2023-09-13","sensor":"Sentinel-1A","polarization":"VV/VH","product_id":"S1A_IW_GRDH_1SDV_20230913T221146_20230913T221211_050315_060EC9_C8FA"}},{"type":"Feature","id":"lee-after","geometry":{"type":"Polygon","coordinates":[[[-64.024475,45.846706],[-67.256866,46.238297],[-66.914276,47.735886],[-63.591076,47.3438],[-64.024475,45.846706]]]},"properties":{"event_id":"lee","event_name":"Hurricane Lee","role":"after","date":"2023-09-17","sensor":"Sentinel-1A","polarization":"HH/HV","product_id":"S1A_IW_GRDH_1SDH_20230917T103149_20230917T103214_050366_06106F_D660"}},{"type":"Feature","id":"dorian-before","geometry":{"type":"Polygon","coordinates":[[[-64.300819,45.932854],[-61.002823,46.332157],[-60.666935,44.834053],[-63.878944,44.434872],[-64.300819,45.932854]]]},"properties":{"event_id":"dorian","event_name":"Hurricane Dorian","role":"before","date":"2019-09-05","sensor":"Sentinel-1A","polarization":"VV/VH","product_id":"S1A_IW_GRDH_1SDV_20190905T220259_20190905T220324_028892_034669_C3D0"}},{"type":"Feature","id":"dorian-after","geometry":{"type":"Polygon","coordinates":[[[-64.023453,45.846684],[-67.255699,46.238327],[-66.913048,47.735893],[-63.589993,47.34375],[-64.023453,45.846684]]]},"properties":{"event_id":"dorian","event_name":"Hurricane Dorian","role":"after","date":"2019-09-08","sensor":"Sentinel-1B","polarization":"HH/HV","product_id":"S1B_IW_GRDH_1SDH_20190908T103043_20190908T103108_017945_021C7C_59C6"}}]}